NORAD_CAT_ID,OBJECT_NAME,OBJECT_TYPE,EPOCH,MEAN_MOTION,ECCENTRICITY,INCLINATION,RA_OF_ASC_NODE,ARG_OF_PERICENTER,MEAN_ANOMALY,BSTAR,MEAN_MOTION_DOT,MEAN_MOTION_DDOT,TLE_LINE0,TLE_LINE1,TLE_LINE2,SEMIMAJOR_AXIS,PERIOD,APOGEE,PERIGEE,DECAYED
54164.0,STARLINK-5278,PAYLOAD,2024-02-14 11:21:52,15.08832094,0.0001687,53.2165,150.1375,82.0658,278.0526,0.00019296,2.784e-05,0.0,0 STARLINK-5278,1 54164U 22141H   24045.47352169  .00002784  00000-0  19296-3 0  9993,2 54164  53.2165 150.1375 0001687  82.0658 278.0526 15.08832094 71993,6917.905,95.438,540.937,538.603,0.0
54164.0,STARLINK-5278,PAYLOAD,2024-02-14 14:32:38,15.08844572,0.000131,53.2152,149.5441,105.7504,254.3632,0.00045272,6.925e-05,0.0,0 STARLINK-5278,1 54164U 22141H   24045.60599548  .00006925  00000-0  45272-3 0  9996,2 54164  53.2152 149.5441 0001310 105.7504 254.3632 15.08844572 72014,6917.866,95.437,540.638,538.825,0.0
54164.0,STARLINK-5278,PAYLOAD,2024-02-15 11:12:39,15.08836548,0.0001499,53.216,145.679,84.2659,275.8504,0.00013861,1.918e-05,0.0,0 STARLINK-5278,1 54164U 22141H   24046.46712428  .00001918  00000-0  13861-3 0  9991,2 54164  53.2160 145.6790 0001499  84.2659 275.8504 15.08836548 72141,6917.891,95.438,540.793,538.719,0.0
54164.0,STARLINK-5278,PAYLOAD,2024-02-15 12:48:02,15.08839354,0.0001518,53.2166,145.382,80.6417,279.4747,0.00016323,2.311e-05,0.0,0 STARLINK-5278,1 54164U 22141H   24046.53336388  .00002311  00000-0  16323-3 0  9990,2 54164  53.2166 145.3820 0001518  80.6417 279.4747 15.08839354 72150,6917.882,95.438,540.797,538.697,0.0
54164.0,STARLINK-5278,PAYLOAD,2024-02-16 12:38:49,15.08853416,0.000158,53.2167,140.9189,102.507,257.6098,0.00038503,5.847e-05,0.0,0 STARLINK-5278,1 54164U 22141H   24047.52695706  .00005847  00000-0  38503-3 0  9993,2 54164  53.2167 140.9189 0001580 102.5070 257.6098 15.08853416 72307,6917.839,95.437,540.797,538.611,0.0
54164.0,STARLINK-5278,PAYLOAD,2024-02-16 15:49:35,15.08857982,0.000172,53.2156,140.3231,106.1559,253.9623,0.000353,5.337e-05,0.0,0 STARLINK-5278,1 54164U 22141H   24047.65943367  .00005337  00000-0  35300-3 0  9992,2 54164  53.2156 140.3231 0001720 106.1559 253.9623 15.08857982 72322,6917.825,95.436,540.88,538.501,0.0
54164.0,STARLINK-5278,PAYLOAD,2024-02-17 12:29:36,15.08837852,0.0001569,53.217,136.4589,88.4574,271.6598,3.507e-05,2.7e-06,0.0,0 STARLINK-5278,1 54164U 22141H   24048.52056459  .00000270  00000-0  35070-4 0  9992,2 54164  53.2170 136.4589 0001569  88.4574 271.6598 15.08837852 72456,6917.887,95.438,540.837,538.667,0.0
54164.0,STARLINK-5278,PAYLOAD,2024-02-17 15:40:23,15.08839709,0.0001575,53.2164,135.8625,88.7394,271.3778,8.3378e-05,1.039e-05,0.0,0 STARLINK-5278,1 54164U 22141H   24048.65304418  .00001039  00000-0  83378-4 0  9995,2 54164  53.2164 135.8625 0001575  88.7394 271.3778 15.08839709 72475,6917.881,95.438,540.836,538.657,0.0
54164.0,STARLINK-5278,PAYLOAD,2024-02-18 12:20:23,15.0885934,0.0001525,53.2166,132.0005,77.4503,282.6659,0.00088098,0.00013768,0.0,0 STARLINK-5278,1 54164U 22141H   24049.51416163  .00013768  00000-0  88098-3 0  9997,2 54164  53.2166 132.0005 0001525  77.4503 282.6659 15.08859340 72601,6917.821,95.436,540.741,538.631,0.0
54164.0,STARLINK-5278,PAYLOAD,2024-02-18 21:52:42,15.088584,0.0001059,53.2155,130.2137,54.6251,305.484,0.00063933,9.907e-05,0.0,0 STARLINK-5278,1 54164U 22141H   24049.91159748  .00009907  00000-0  63933-3 0  9995,2 54164  53.2155 130.2137 0001059  54.6251 305.4840 15.08858400 72662,6917.824,95.436,540.422,538.957,0.0
54164.0,STARLINK-5278,PAYLOAD,2024-02-19 04:14:15,15.08846449,0.0002288,53.2161,129.0238,81.6392,278.486,0.00015708,2.213e-05,0.0,0 STARLINK-5278,1 54164U 22141H   24050.17656291  .00002213  00000-0  15708-3 0  9990,2 54164  53.2161 129.0238 0002288  81.6392 278.4860 15.08846449 72704,6917.861,95.437,541.308,538.143,0.0
54164.0,STARLINK-5278,PAYLOAD,2024-02-19 12:11:10,15.08844346,0.0001574,53.217,127.5407,89.2864,270.8309,0.00012483,1.699e-05,0.0,0 STARLINK-5278,1 54164U 22141H   24050.50776204  .00001699  00000-0  12483-3 0  9998,2 54164  53.2170 127.5407 0001574  89.2864 270.8309 15.08844346 72753,6917.867,95.437,540.821,538.643,0.0
54164.0,STARLINK-5278,PAYLOAD,2024-02-19 21:43:29,15.08837314,0.0001559,53.2164,125.7567,91.7374,268.3797,-4.2425e-05,-9.63e-06,0.0,0 STARLINK-5278,1 54164U 22141H   24050.90520404 -.00000963  00000-0 -42425-4 0  9996,2 54164  53.2164 125.7567 0001559  91.7374 268.3797 15.08837314 72817,6917.889,95.438,540.832,538.675,0.0
54164.0,STARLINK-5278,PAYLOAD,2024-02-20 12:01:57,15.08841019,0.0001515,53.2161,123.0803,94.8419,265.2746,3.3612e-05,2.47e-06,0.0,0 STARLINK-5278,1 54164U 22141H   24051.50136415  .00000247  00000-0  33612-4 0  9999,2 54164  53.2161 123.0803 0001515  94.8419 265.2746 15.08841019 72901,6917.877,95.437,540.79,538.694,0.0
54164.0,STARLINK-5278,PAYLOAD,2024-02-21 11:52:44,15.08846022,0.0001526,53.2161,118.6198,96.1712,263.9454,0.00022598,3.311e-05,0.0,0 STARLINK-5278,1 54164U 22141H   24052.49496354  .00003311  00000-0  22598-3 0  9994,2 54164  53.2161 118.6198 0001526  96.1712 263.9454 15.08846022 73058,6917.862,95.437,540.783,538.671,0.0
54164.0,STARLINK-5278,PAYLOAD,2024-02-21 13:28:08,15.08844935,0.0001679,53.2165,118.3229,100.7612,259.357,0.0002608,3.866e-05,0.0,0 STARLINK-5278,1 54164U 22141H   24052.56120415  .00003866  00000-0  26080-3 0  9999,2 54164  53.2165 118.3229 0001679 100.7612 259.3570 15.08844935 73064,6917.865,95.437,540.892,538.569,0.0
54164.0,STARLINK-5278,PAYLOAD,2024-02-21 21:25:03,15.08842047,0.0001416,53.2156,116.8341,93.6892,266.4262,0.00011439,1.533e-05,0.0,0 STARLINK-5278,1 54164U 22141H   24052.89240430  .00001533  00000-0  11439-3 0  9996,2 54164  53.2156 116.8341 0001416  93.6892 266.4262 15.08842047 73116,6917.874,95.437,540.719,538.76,0.0
54164.0,STARLINK-5278,PAYLOAD,2024-02-22 03:46:36,15.08840436,0.0001407,53.2163,115.6428,95.312,264.8033,0.00011521,1.546e-05,0.0,0 STARLINK-5278,1 54164U 22141H   24053.15736381  .00001546  00000-0  11521-3 0  9997,2 54164  53.2163 115.6428 0001407  95.3120 264.8033 15.08840436 73152,6917.879,95.438,540.717,538.771,0.0
54164.0,STARLINK-5278,PAYLOAD,2024-02-22 11:43:32,15.0884134,0.0001504,53.2157,114.1582,94.7631,265.3532,7.7008e-05,9.38e-06,0.0,0 STARLINK-5278,1 54164U 22141H   24053.48856676  .00000938  00000-0  77008-4 0  9990,2 54164  53.2157 114.1582 0001504  94.7631 265.3532 15.08841340 73209,6917.876,95.437,540.782,538.701,0.0
54164.0,STARLINK-5278,PAYLOAD,2024-02-22 21:15:51,15.08839578,0.0001413,53.2151,112.3724,97.0696,263.0457,6.1433e-05,6.9e-06,0.0,0 STARLINK-5278,1 54164U 22141H   24053.88600750  .00000690  00000-0  61433-4 0  9994,2 54164  53.2151 112.3724 0001413  97.0696 263.0457 15.08839578 73264,6917.882,95.438,540.724,538.769,0.0
54164.0,STARLINK-5278,PAYLOAD,2024-02-23 09:58:56,15.08844085,0.0001428,53.2149,109.9944,89.2409,270.8747,6.6262e-05,7.67e-06,0.0,0 STARLINK-5278,1 54164U 22141H   24054.41592602  .00000767  00000-0  66262-4 0  9990,2 54164  53.2149 109.9944 0001428  89.2409 270.8747 15.08844085 73344,6917.868,95.437,540.721,538.745,0.0
54164.0,STARLINK-5278,PAYLOAD,2024-02-23 21:06:37,15.08845937,0.000144,53.2146,107.9127,89.4309,270.6848,9.7628e-05,1.266e-05,0.0,0 STARLINK-5278,1 54164U 22141H   24054.87960488  .00001266  00000-0  97628-4 0  9996,2 54164  53.2146 107.9127 0001440  89.4309 270.6848 15.08845937 73412,6917.862,95.437,540.723,538.731,0.0
54164.0,STARLINK-5278,PAYLOAD,2024-02-24 09:49:43,15.08839699,0.0001455,53.2154,105.5325,97.1349,262.9808,0.00018438,2.648e-05,0.0,0 STARLINK-5278,1 54164U 22141H   24055.40952942  .00002648  00000-0  18438-3 0  9998,2 54164  53.2154 105.5325 0001455  97.1349 262.9808 15.08839699 73497,6917.881,95.438,540.753,538.74,0.0
54164.0,STARLINK-5278,PAYLOAD,2024-02-25 12:51:15,15.08849642,0.0001595,53.2166,100.4759,100.5352,259.582,9.7433e-05,1.263e-05,0.0,0 STARLINK-5278,1 54164U 22141H   24056.53560139  .00001263  00000-0  97433-4 0  9991,2 54164  53.2166 100.4759 0001595 100.5352 259.5820 15.08849642 73667,6917.851,95.437,540.819,538.613,0.0
54164.0,STARLINK-5278,PAYLOAD,2024-02-26 03:09:44,15.08838228,0.0001588,53.2169,97.7974,104.6231,255.4937,8.13e-05,1.006e-05,0.0,0 STARLINK-5278,1 54164U 22141H   24057.13176868  .00001006  00000-0  81300-4 0  9991,2 54164  53.2169  97.7974 0001588 104.6231 255.4937 15.08838228 73752,6917.886,95.438,540.849,538.652,0.0
54164.0,STARLINK-5278,PAYLOAD,2024-02-26 11:06:40,15.08843244,0.0001518,53.2171,96.3146,96.1429,263.9737,9.959e-05,1.297e-05,0.0,0 STARLINK-5278,1 54164U 22141H   24057.46296584  .00001297  00000-0  99590-4 0  9997,2 54164  53.2171  96.3146 0001518  96.1429 263.9737 15.08843244 73800,6917.87,95.437,540.786,538.685,0.0
54164.0,STARLINK-5278,PAYLOAD,2024-02-27 09:22:04,15.08838415,0.0001595,53.2156,92.1508,100.1698,259.9474,5.6524e-05,6.12e-06,0.0,0 STARLINK-5278,1 54164U 22141H   24058.39033125  .00000612  00000-0  56524-4 0  9990,2 54164  53.2156  92.1508 0001595 100.1698 259.9474 15.08838415 73940,6917.885,95.438,540.854,538.647,0.0
54164.0,STARLINK-5278,PAYLOAD,2024-02-27 18:54:23,15.08839267,0.0001561,53.2161,90.3666,98.2485,261.8685,5.3645e-05,5.66e-06,0.0,0 STARLINK-5278,1 54164U 22141H   24058.78777129  .00000566  00000-0  53645-4 0  9991,2 54164  53.2161  90.3666 0001561  98.2485 261.8685 15.08839267 74005,6917.883,95.438,540.828,538.668,0.0
54164.0,STARLINK-5278,PAYLOAD,2024-02-28 10:48:15,15.08839117,0.0001523,53.2182,87.3955,96.8679,263.2487,8.5405e-05,1.071e-05,0.0,0 STARLINK-5278,1 54164U 22141H   24059.45017371  .00001071  00000-0  85405-4 0  9993,2 54164  53.2182  87.3955 0001523  96.8679 263.2487 15.08839117 74103,6917.883,95.438,540.802,538.694,0.0
54164.0,STARLINK-5278,PAYLOAD,2024-02-28 18:45:10,15.08844586,0.0001499,53.2181,85.9085,95.4241,264.6922,-1.5679e-05,-5.38e-06,0.0,0 STARLINK-5278,1 54164U 22141H   24059.78137210 -.00000538  00000-0 -15679-4 0  9999,2 54164  53.2181  85.9085 0001499  95.4241 264.6922 15.08844586 74152,6917.866,95.437,540.768,538.694,0.0
